start=new Date('2021-11-19T00:00:00.000Z').valueOf();
sats=[{"TLE_LINE2":"2 47367  53.0550 279.0208 0001634  73.0016 287.1152 15.06404728 46098","RCS_SIZE":"LARGE","CLASSIFICATION_TYPE":"U","PERIAPSIS":"546.067","MEAN_ANOMALY":"287.1152","MEAN_ELEMENT_THEORY":"SGP4","ELEMENT_SET_NO":"999","INCLINATION":"53.0550","OBJECT_ID":"2021-005U","TLE_LINE1":"1 47367U 21005U   21322.59884628  .00000158  00000-0  29495-4 0  9992","REF_FRAME":"TEME","PERIOD":"95.592","SEMIMAJOR_AXIS":"6925.334","RA_OF_ASC_NODE":"279.0208","MEAN_MOTION":"15.06404728","ARG_OF_PERICENTER":"73.0016","EPHEMERIS_TYPE":"0","LAUNCH_DATE":"2021-01-20","CENTER_NAME":"EARTH","MEAN_MOTION_DDOT":"0.0000000000000","ECCENTRICITY":"0.00016340","OBJECT_NAME":"STARLINK-2082","BSTAR":"0.00002949500000","REV_AT_EPOCH":"4609","APOAPSIS":"548.331","DECAY_DATE":null,"GP_ID":"190038937","NORAD_CAT_ID":"47367","EPOCH":"2021-11-18T14:22:20.318592","COUNTRY_CODE":"US","MEAN_MOTION_DOT":"0.00000158","FILE":"3218669","OBJECT_TYPE":"PAYLOAD","TIME_SYSTEM":"UTC","SITE":"AFETR"},{"PERIOD":"95.593","TLE_LINE1":"1 47368U 21005V   21322.85687306 -.00000307  00000-0 -17046-5 0  9994","REF_FRAME":"TEME","SEMIMAJOR_AXIS":"6925.384","MEAN_MOTION":"15.06388459","RA_OF_ASC_NODE":"277.8518","ELEMENT_SET_NO":"999","INCLINATION":"53.0535","OBJECT_ID":"2021-005V","CENTER_NAME":"EARTH","MEAN_MOTION_DDOT":"0.0000000000000","ECCENTRICITY":"0.00018290","OBJECT_NAME":"STARLINK-2084","BSTAR":"-0.00000170460000","ARG_OF_PERICENTER":"61.7163","LAUNCH_DATE":"2021-01-20","EPHEMERIS_TYPE":"0","CLASSIFICATION_TYPE":"U","TLE_LINE2":"2 47368  53.0535 277.8518 0001829  61.7163 298.4010 15.06388459 46130","RCS_SIZE":"LARGE","MEAN_ELEMENT_THEORY":"SGP4","PERIAPSIS":"545.982","MEAN_ANOMALY":"298.4010","MEAN_MOTION_DOT":"-0.00000307","COUNTRY_CODE":"US","TIME_SYSTEM":"UTC","SITE":"AFETR","FILE":"3218669","OBJECT_TYPE":"PAYLOAD","REV_AT_EPOCH":"4613","EPOCH":"2021-11-18T20:33:53.832384","DECAY_DATE":null,"APOAPSIS":"548.516","GP_ID":"190039187","NORAD_CAT_ID":"47368"},{"TIME_SYSTEM":"UTC","SITE":"AFETR","FILE":"3218618","OBJECT_TYPE":"PAYLOAD","MEAN_MOTION_DOT":"-0.00002095","COUNTRY_CODE":"US","EPOCH":"2021-11-18T20:41:50.998848","APOAPSIS":"548.479","DECAY_DATE":null,"GP_ID":"190016853","NORAD_CAT_ID":"47369","REV_AT_EPOCH":"4737","CENTER_NAME":"EARTH","MEAN_MOTION_DDOT":"0.0000000000000","ECCENTRICITY":"0.00017930","OBJECT_NAME":"STARLINK-2085","BSTAR":"-0.00012179000000","ARG_OF_PERICENTER":"63.2040","EPHEMERIS_TYPE":"0","LAUNCH_DATE":"2021-01-20","TLE_LINE1":"1 47369U 21005W   21322.86239582 -.00002095  00000-0 -12179-3 0  9991","PERIOD":"95.593","REF_FRAME":"TEME","SEMIMAJOR_AXIS":"6925.373","RA_OF_ASC_NODE":"257.8330","MEAN_MOTION":"15.06392120","ELEMENT_SET_NO":"999","INCLINATION":"53.0544","OBJECT_ID":"2021-005W","MEAN_ELEMENT_THEORY":"SGP4","PERIAPSIS":"545.996","MEAN_ANOMALY":"296.9132","CLASSIFICATION_TYPE":"U","TLE_LINE2":"2 47369  53.0544 257.8330 0001793  63.2040 296.9132 15.06392120 47377","RCS_SIZE":"LARGE"},{"TIME_SYSTEM":"UTC","SITE":"AFETR","OBJECT_TYPE":"PAYLOAD","FILE":"3218669","MEAN_MOTION_DOT":"0.00000230","COUNTRY_CODE":"US","EPOCH":"2021-11-18T21:16:21.031392","APOAPSIS":"548.546","DECAY_DATE":null,"NORAD_CAT_ID":"47370","GP_ID":"190039690","REV_AT_EPOCH":"4670","MEAN_MOTION_DDOT":"0.0000000000000","CENTER_NAME":"EARTH","BSTAR":"0.00003434900000","ECCENTRICITY":"0.00019280","OBJECT_NAME":"STARLINK-2086","ARG_OF_PERICENTER":"66.0346","EPHEMERIS_TYPE":"0","LAUNCH_DATE":"2021-01-20","SEMIMAJOR_AXIS":"6925.345","TLE_LINE1":"1 47370U 21005X   21322.88635453  .00000230  00000-0  34349-4 0  9993","REF_FRAME":"TEME","PERIOD":"95.592","MEAN_MOTION":"15.06401015","RA_OF_ASC_NODE":"237.7088","ELEMENT_SET_NO":"999","OBJECT_ID":"2021-005X","INCLINATION":"53.0606","MEAN_ELEMENT_THEORY":"SGP4","MEAN_ANOMALY":"294.0844","PERIAPSIS":"545.875","CLASSIFICATION_TYPE":"U","RCS_SIZE":"LARGE","TLE_LINE2":"2 47370  53.0606 237.7088 0001928  66.0346 294.0844 15.06401015 46704"},{"REV_AT_EPOCH":"4613","DECAY_DATE":null,"APOAPSIS":"548.449","GP_ID":"190038438","NORAD_CAT_ID":"47371","EPOCH":"2021-11-18T20:55:07.274208","COUNTRY_CODE":"US","MEAN_MOTION_DOT":"0.00000229","FILE":"3218669","OBJECT_TYPE":"PAYLOAD","TIME_SYSTEM":"UTC","SITE":"AFETR","TLE_LINE2":"2 47371  53.0548 277.7846 0001776  71.4686 288.6496 15.06398241 46139","RCS_SIZE":"LARGE","CLASSIFICATION_TYPE":"U","PERIAPSIS":"545.989","MEAN_ANOMALY":"288.6496","MEAN_ELEMENT_THEORY":"SGP4","ELEMENT_SET_NO":"999","OBJECT_ID":"2021-005Y","INCLINATION":"53.0548","TLE_LINE1":"1 47371U 21005Y   21322.87161197  .00000229  00000-0  34254-4 0  9995","REF_FRAME":"TEME","PERIOD":"95.592","SEMIMAJOR_AXIS":"6925.354","MEAN_MOTION":"15.06398241","RA_OF_ASC_NODE":"277.7846","ARG_OF_PERICENTER":"71.4686","LAUNCH_DATE":"2021-01-20","EPHEMERIS_TYPE":"0","CENTER_NAME":"EARTH","MEAN_MOTION_DDOT":"0.0000000000000","ECCENTRICITY":"0.00017760","OBJECT_NAME":"STARLINK-2088","BSTAR":"0.00003425400000"},{"ELEMENT_SET_NO":"999","INCLINATION":"53.0550","OBJECT_ID":"2021-005Z","SEMIMAJOR_AXIS":"6925.342","PERIOD":"95.592","TLE_LINE1":"1 47372U 21005Z   21322.57071712  .00000459  00000-0  49704-4 0  9997","REF_FRAME":"TEME","RA_OF_ASC_NODE":"274.1224","MEAN_MOTION":"15.06402073","ARG_OF_PERICENTER":"58.8199","LAUNCH_DATE":"2021-01-20","EPHEMERIS_TYPE":"0","MEAN_MOTION_DDOT":"0.0000000000000","CENTER_NAME":"EARTH","BSTAR":"0.00004970400000","OBJECT_NAME":"STARLINK-2089","ECCENTRICITY":"0.00017890","RCS_SIZE":"LARGE","TLE_LINE2":"2 47372  53.0550 274.1224 0001789  58.8199 301.2965 15.06402073 46150","CLASSIFICATION_TYPE":"U","MEAN_ANOMALY":"301.2965","PERIAPSIS":"545.968","MEAN_ELEMENT_THEORY":"SGP4","COUNTRY_CODE":"US","MEAN_MOTION_DOT":"0.00000459","OBJECT_TYPE":"PAYLOAD","FILE":"3218461","TIME_SYSTEM":"UTC","SITE":"AFETR","REV_AT_EPOCH":"4615","DECAY_DATE":null,"APOAPSIS":"548.446","NORAD_CAT_ID":"47372","GP_ID":"190010349","EPOCH":"2021-11-18T13:41:49.959168"},{"ELEMENT_SET_NO":"999","INCLINATION":"53.0544","OBJECT_ID":"2021-005AA","SEMIMAJOR_AXIS":"6925.334","PERIOD":"95.592","TLE_LINE1":"1 47373U 21005AA  21322.86791868  .00000067  00000-0  23392-4 0  9991","REF_FRAME":"TEME","RA_OF_ASC_NODE":"277.7944","MEAN_MOTION":"15.06404590","ARG_OF_PERICENTER":"65.3146","LAUNCH_DATE":"2021-01-20","EPHEMERIS_TYPE":"0","MEAN_MOTION_DDOT":"0.0000000000000","CENTER_NAME":"EARTH","BSTAR":"0.00002339200000","ECCENTRICITY":"0.00016360","OBJECT_NAME":"STARLINK-2092","RCS_SIZE":"LARGE","TLE_LINE2":"2 47373  53.0544 277.7944 0001636  65.3146 294.8013 15.06404590 46133","CLASSIFICATION_TYPE":"U","PERIAPSIS":"546.067","MEAN_ANOMALY":"294.8013","MEAN_ELEMENT_THEORY":"SGP4","COUNTRY_CODE":"US","MEAN_MOTION_DOT":"0.00000067","OBJECT_TYPE":"PAYLOAD","FILE":"3218669","TIME_SYSTEM":"UTC","SITE":"AFETR","REV_AT_EPOCH":"4613","DECAY_DATE":null,"APOAPSIS":"548.332","NORAD_CAT_ID":"47373","GP_ID":"190039939","EPOCH":"2021-11-18T20:49:48.173952"},{"COUNTRY_CODE":"US","MEAN_MOTION_DOT":"0.00055593","FILE":"3218669","OBJECT_TYPE":"PAYLOAD","TIME_SYSTEM":"UTC","SITE":"AFETR","REV_AT_EPOCH":"4613","DECAY_DATE":null,"APOAPSIS":"549.139","GP_ID":"190040190","NORAD_CAT_ID":"47374","EPOCH":"2021-11-18T21:20:08.666016","ELEMENT_SET_NO":"999","INCLINATION":"53.0547","OBJECT_ID":"2021-005AB","TLE_LINE1":"1 47374U 21005AB  21322.88898919  .00055593  00000-0  37532-2 0  9992","PERIOD":"95.612","REF_FRAME":"TEME","SEMIMAJOR_AXIS":"6926.305","MEAN_MOTION":"15.06088074","RA_OF_ASC_NODE":"277.7819","ARG_OF_PERICENTER":"59.5790","EPHEMERIS_TYPE":"0","LAUNCH_DATE":"2021-01-20","CENTER_NAME":"EARTH","MEAN_MOTION_DDOT":"0.0000000000000","ECCENTRICITY":"0.00013990","OBJECT_NAME":"STARLINK-2093","BSTAR":"0.00375320000000","TLE_LINE2":"2 47374  53.0547 277.7819 0001399  59.5790 300.5337 15.06088074 46133","RCS_SIZE":"LARGE","CLASSIFICATION_TYPE":"U","PERIAPSIS":"547.201","MEAN_ANOMALY":"300.5337","MEAN_ELEMENT_THEORY":"SGP4"},{"TIME_SYSTEM":"UTC","SITE":"AFETR","FILE":"3218669","OBJECT_TYPE":"PAYLOAD","MEAN_MOTION_DOT":"-0.00000382","COUNTRY_CODE":"US","EPOCH":"2021-11-18T21:26:57.652512","APOAPSIS":"548.310","DECAY_DATE":null,"GP_ID":"190038938","NORAD_CAT_ID":"47375","REV_AT_EPOCH":"4613","CENTER_NAME":"EARTH","MEAN_MOTION_DDOT":"0.0000000000000","ECCENTRICITY":"0.00015870","OBJECT_NAME":"STARLINK-2094","BSTAR":"-0.00000672440000","ARG_OF_PERICENTER":"72.8573","EPHEMERIS_TYPE":"0","LAUNCH_DATE":"2021-01-20","REF_FRAME":"TEME","TLE_LINE1":"1 47375U 21005AC  21322.89372283 -.00000382  00000-0 -67244-5 0  9999","PERIOD":"95.592","SEMIMAJOR_AXIS":"6925.346","MEAN_MOTION":"15.06400713","RA_OF_ASC_NODE":"277.6905","ELEMENT_SET_NO":"999","INCLINATION":"53.0559","OBJECT_ID":"2021-005AC","MEAN_ELEMENT_THEORY":"SGP4","PERIAPSIS":"546.112","MEAN_ANOMALY":"287.2590","CLASSIFICATION_TYPE":"U","TLE_LINE2":"2 47375  53.0559 277.6905 0001587  72.8573 287.2590 15.06400713 46138","RCS_SIZE":"LARGE"},{"CENTER_NAME":"EARTH","MEAN_MOTION_DDOT":"0.0000000000000","ECCENTRICITY":"0.00015350","OBJECT_NAME":"STARLINK-2096","BSTAR":"-0.00004166500000","ARG_OF_PERICENTER":"61.5097","LAUNCH_DATE":"2021-01-20","EPHEMERIS_TYPE":"0","TLE_LINE1":"1 47376U 21005AD  21322.89741783 -.00000902  00000-0 -41665-4 0  9991","REF_FRAME":"TEME","PERIOD":"95.593","SEMIMAJOR_AXIS":"6925.389","MEAN_MOTION":"15.06386711","RA_OF_ASC_NODE":"277.6726","ELEMENT_SET_NO":"999","OBJECT_ID":"2021-005AD","INCLINATION":"53.0556","MEAN_ELEMENT_THEORY":"SGP4","MEAN_ANOMALY":"298.6047","PERIAPSIS":"546.191","CLASSIFICATION_TYPE":"U","TLE_LINE2":"2 47376  53.0556 277.6726 0001535  61.5097 298.6047 15.06386711 46130","RCS_SIZE":"LARGE","TIME_SYSTEM":"UTC","SITE":"AFETR","FILE":"3218669","OBJECT_TYPE":"PAYLOAD","MEAN_MOTION_DOT":"-0.00000902","COUNTRY_CODE":"US","EPOCH":"2021-11-18T21:32:16.900512","APOAPSIS":"548.317","DECAY_DATE":null,"GP_ID":"190039188","NORAD_CAT_ID":"47376","REV_AT_EPOCH":"4613"}];
